start=new Date('2021-10-10T00:00:00.000Z').valueOf();
sats=[{"RA_OF_ASC_NODE":"342.6193","ELEMENT_SET_NO":"999","OBJECT_TYPE":"PAYLOAD","EPHEMERIS_TYPE":"0","PERIOD":"95.092","MEAN_MOTION":"15.14318310","EPOCH":"2021-10-09T17:48:33.571872","TIME_SYSTEM":"UTC","GP_ID":"186729557","SITE":"AFETR","RCS_SIZE":"LARGE","INCLINATION":"97.4849","OBJECT_ID":"2021-006J","APOAPSIS":"526.312","MEAN_ELEMENT_THEORY":"SGP4","COUNTRY_CODE":"US","SEMIMAJOR_AXIS":"6901.186","TLE_LINE1":"1 47421U 21006J   21282.74205523 -.00000429  00000-0 -19885-4 0  9992","BSTAR":"-0.00001988500000","LAUNCH_DATE":"2021-01-24","ECCENTRICITY":"0.00047260","OBJECT_NAME":"STARLINK-2207","DECAY_DATE":null,"PERIAPSIS":"519.789","REV_AT_EPOCH":"3937","FILE":"3153808","NORAD_CAT_ID":"47421","TLE_LINE2":"2 47421  97.4849 342.6193 0004726 140.2122 219.9457 15.14318310 39376","REF_FRAME":"TEME","MEAN_MOTION_DOT":"-0.00000429","CLASSIFICATION_TYPE":"U","CENTER_NAME":"EARTH","MEAN_ANOMALY":"219.9457","MEAN_MOTION_DDOT":"0.0000000000000","ARG_OF_PERICENTER":"140.2122"},{"RA_OF_ASC_NODE":"342.6354","ELEMENT_SET_NO":"999","EPHEMERIS_TYPE":"0","OBJECT_TYPE":"PAYLOAD","PERIOD":"95.092","MEAN_MOTION":"15.14323382","EPOCH":"2021-10-09T17:45:54.696096","TIME_SYSTEM":"UTC","GP_ID":"186727810","RCS_SIZE":"LARGE","OBJECT_ID":"2021-006K","INCLINATION":"97.4852","SITE":"AFETR","APOAPSIS":"526.290","COUNTRY_CODE":"US","MEAN_ELEMENT_THEORY":"SGP4","BSTAR":"0.00001345500000","TLE_LINE1":"1 47422U 21006K   21282.74021639  .00000182  00000-0  13455-4 0  9998","SEMIMAJOR_AXIS":"6901.170","LAUNCH_DATE":"2021-01-24","OBJECT_NAME":"STARLINK-2208","ECCENTRICITY":"0.00047160","DECAY_DATE":null,"PERIAPSIS":"519.781","REV_AT_EPOCH":"3937","FILE":"3153808","REF_FRAME":"TEME","TLE_LINE2":"2 47422  97.4852 342.6354 0004716 140.6850 219.4724 15.14323382 39378","NORAD_CAT_ID":"47422","MEAN_MOTION_DOT":"0.00000182","CLASSIFICATION_TYPE":"U","MEAN_ANOMALY":"219.4724","CENTER_NAME":"EARTH","MEAN_MOTION_DDOT":"0.0000000000000","ARG_OF_PERICENTER":"140.6850"},{"MEAN_MOTION_DOT":"-0.00000242","REF_FRAME":"TEME","NORAD_CAT_ID":"47548","TLE_LINE2":"2 47548  53.0569  48.3400 0001317  89.8654 270.2486 15.06386042 37968","CLASSIFICATION_TYPE":"U","MEAN_MOTION_DDOT":"0.0000000000000","MEAN_ANOMALY":"270.2486","CENTER_NAME":"EARTH","ARG_OF_PERICENTER":"89.8654","LAUNCH_DATE":"2021-02-04","DECAY_DATE":null,"OBJECT_NAME":"STARLINK-1782","ECCENTRICITY":"0.00013170","REV_AT_EPOCH":"3796","PERIAPSIS":"546.344","FILE":"3153808","RCS_SIZE":"LARGE","OBJECT_ID":"2021-009A","INCLINATION":"53.0569","SITE":"AFETR","GP_ID":"186728826","APOAPSIS":"548.168","COUNTRY_CODE":"US","MEAN_ELEMENT_THEORY":"SGP4","TLE_LINE1":"1 47548U 21009A   21282.65157306 -.00000242  00000-0  26508-5 0  9993","BSTAR":"0.00000265080000","SEMIMAJOR_AXIS":"6925.391","RA_OF_ASC_NODE":"48.3400","OBJECT_TYPE":"PAYLOAD","EPHEMERIS_TYPE":"0","ELEMENT_SET_NO":"999","PERIOD":"95.593","MEAN_MOTION":"15.06386042","TIME_SYSTEM":"UTC","EPOCH":"2021-10-09T15:38:15.912384"},{"COUNTRY_CODE":"US","MEAN_ELEMENT_THEORY":"SGP4","TLE_LINE1":"1 47549U 21009B   21282.71423284 -.00002419  00000-0 -14358-3 0  9999","BSTAR":"-0.00014358000000","SEMIMAJOR_AXIS":"6925.375","INCLINATION":"53.0570","RCS_SIZE":"LARGE","OBJECT_ID":"2021-009B","SITE":"AFETR","GP_ID":"186729573","APOAPSIS":"548.392","MEAN_MOTION":"15.06391368","PERIOD":"95.593","TIME_SYSTEM":"UTC","EPOCH":"2021-10-09T17:08:29.717376","RA_OF_ASC_NODE":"48.0499","EPHEMERIS_TYPE":"0","OBJECT_TYPE":"PAYLOAD","ELEMENT_SET_NO":"999","MEAN_MOTION_DDOT":"0.0000000000000","CENTER_NAME":"EARTH","MEAN_ANOMALY":"275.6801","ARG_OF_PERICENTER":"84.4377","MEAN_MOTION_DOT":"-0.00002419","REF_FRAME":"TEME","TLE_LINE2":"2 47549  53.0570  48.0499 0001663  84.4377 275.6801 15.06391368 37971","NORAD_CAT_ID":"47549","CLASSIFICATION_TYPE":"U","REV_AT_EPOCH":"3797","PERIAPSIS":"546.088","FILE":"3153808","LAUNCH_DATE":"2021-02-04","DECAY_DATE":null,"ECCENTRICITY":"0.00016630","OBJECT_NAME":"STARLINK-1806"},{"APOAPSIS":"548.055","RCS_SIZE":"LARGE","INCLINATION":"53.0577","OBJECT_ID":"2021-009C","SITE":"AFETR","GP_ID":"186727826","BSTAR":"0.00006867700000","TLE_LINE1":"1 47550U 21009C   21282.72619637  .00000742  00000-0  68677-4 0  9990","SEMIMAJOR_AXIS":"6925.328","COUNTRY_CODE":"US","MEAN_ELEMENT_THEORY":"SGP4","EPHEMERIS_TYPE":"0","OBJECT_TYPE":"PAYLOAD","ELEMENT_SET_NO":"999","RA_OF_ASC_NODE":"37.9952","TIME_SYSTEM":"UTC","EPOCH":"2021-10-09T17:25:43.366368","PERIOD":"95.592","MEAN_MOTION":"15.06406822","CLASSIFICATION_TYPE":"U","MEAN_MOTION_DOT":"0.00000742","REF_FRAME":"TEME","NORAD_CAT_ID":"47550","TLE_LINE2":"2 47550  53.0577  37.9952 0001245  89.6673 270.4459 15.06406822 38114","ARG_OF_PERICENTER":"89.6673","MEAN_MOTION_DDOT":"0.0000000000000","CENTER_NAME":"EARTH","MEAN_ANOMALY":"270.4459","DECAY_DATE":null,"OBJECT_NAME":"STARLINK-1909","ECCENTRICITY":"0.00012450","LAUNCH_DATE":"2021-02-04","FILE":"3153808","REV_AT_EPOCH":"3811","PERIAPSIS":"546.330"},{"CLASSIFICATION_TYPE":"U","REF_FRAME":"TEME","NORAD_CAT_ID":"47551","TLE_LINE2":"2 47551  53.0562  57.7190 0001739  93.0829 267.0359 15.06388674 37847","MEAN_MOTION_DOT":"-0.00000259","ARG_OF_PERICENTER":"93.0829","CENTER_NAME":"EARTH","MEAN_ANOMALY":"267.0359","MEAN_MOTION_DDOT":"0.0000000000000","OBJECT_NAME":"STARLINK-1938","ECCENTRICITY":"0.00017390","DECAY_DATE":null,"LAUNCH_DATE":"2021-02-04","FILE":"3153808","PERIAPSIS":"546.044","REV_AT_EPOCH":"3784","APOAPSIS":"548.453","GP_ID":"186728071","RCS_SIZE":"LARGE","OBJECT_ID":"2021-009D","INCLINATION":"53.0562","SITE":"AFETR","BSTAR":"0.00000152790000","TLE_LINE1":"1 47551U 21009D   21282.78702783 -.00000259  00000-0  15279-5 0  9997","SEMIMAJOR_AXIS":"6925.383","COUNTRY_CODE":"US","MEAN_ELEMENT_THEORY":"SGP4","ELEMENT_SET_NO":"999","OBJECT_TYPE":"PAYLOAD","EPHEMERIS_TYPE":"0","RA_OF_ASC_NODE":"57.7190","EPOCH":"2021-10-09T18:53:19.204512","TIME_SYSTEM":"UTC","MEAN_MOTION":"15.06388674","PERIOD":"95.593"},{"TLE_LINE1":"1 47552U 21009E   21282.72528465 -.00000008  00000-0  18338-4 0  9995","BSTAR":"0.00001833800000","SEMIMAJOR_AXIS":"6925.369","COUNTRY_CODE":"US","MEAN_ELEMENT_THEORY":"SGP4","APOAPSIS":"548.223","RCS_SIZE":"LARGE","OBJECT_ID":"2021-009E","INCLINATION":"53.0576","SITE":"AFETR","GP_ID":"186729326","TIME_SYSTEM":"UTC","EPOCH":"2021-10-09T17:24:24.593760","MEAN_MOTION":"15.06393390","PERIOD":"95.593","OBJECT_TYPE":"PAYLOAD","EPHEMERIS_TYPE":"0","ELEMENT_SET_NO":"999","RA_OF_ASC_NODE":"48.0121","ARG_OF_PERICENTER":"97.1675","MEAN_MOTION_DDOT":"0.0000000000000","MEAN_ANOMALY":"262.9476","CENTER_NAME":"EARTH","CLASSIFICATION_TYPE":"U","MEAN_MOTION_DOT":"-0.00000008","REF_FRAME":"TEME","TLE_LINE2":"2 47552  53.0576  48.0121 0001429  97.1675 262.9476 15.06393390 37979","NORAD_CAT_ID":"47552","FILE":"3153808","REV_AT_EPOCH":"3797","PERIAPSIS":"546.244","DECAY_DATE":null,"ECCENTRICITY":"0.00014290","OBJECT_NAME":"STARLINK-1940","LAUNCH_DATE":"2021-02-04"},{"APOAPSIS":"551.196","SITE":"AFETR","OBJECT_ID":"2021-009F","RCS_SIZE":"LARGE","INCLINATION":"53.0572","GP_ID":"186729074","SEMIMAJOR_AXIS":"6925.367","TLE_LINE1":"1 47553U 21009F   21282.64419220 -.00001788  00000-0 -10101-3 0  9991","BSTAR":"-0.00010101000000","MEAN_ELEMENT_THEORY":"SGP4","COUNTRY_CODE":"US","OBJECT_TYPE":"PAYLOAD","EPHEMERIS_TYPE":"0","ELEMENT_SET_NO":"999","RA_OF_ASC_NODE":"48.3772","TIME_SYSTEM":"UTC","EPOCH":"2021-10-09T15:27:38.206080","MEAN_MOTION":"15.06393982","PERIOD":"95.593","CLASSIFICATION_TYPE":"U","MEAN_MOTION_DOT":"-0.00001788","TLE_LINE2":"2 47553  53.0572  48.3772 0005724 198.0156 162.0631 15.06393982 37967","NORAD_CAT_ID":"47553","REF_FRAME":"TEME","ARG_OF_PERICENTER":"198.0156","MEAN_MOTION_DDOT":"0.0000000000000","MEAN_ANOMALY":"162.0631","CENTER_NAME":"EARTH","DECAY_DATE":null,"ECCENTRICITY":"0.00057240","OBJECT_NAME":"STARLINK-1951","LAUNCH_DATE":"2021-02-04","FILE":"3153808","REV_AT_EPOCH":"3796","PERIAPSIS":"543.268"},{"NORAD_CAT_ID":"47554","TLE_LINE2":"2 47554  53.0562  67.9720 0004725  17.2517 342.8632 15.06402956 37691","REF_FRAME":"TEME","MEAN_MOTION_DOT":"0.00001514","CLASSIFICATION_TYPE":"U","MEAN_ANOMALY":"342.8632","CENTER_NAME":"EARTH","MEAN_MOTION_DDOT":"0.0000000000000","ARG_OF_PERICENTER":"17.2517","LAUNCH_DATE":"2021-02-04","ECCENTRICITY":"0.00047250","OBJECT_NAME":"STARLINK-1953","DECAY_DATE":null,"PERIAPSIS":"543.932","REV_AT_EPOCH":"3769","FILE":"3153808","GP_ID":"186728326","SITE":"AFETR","RCS_SIZE":"LARGE","OBJECT_ID":"2021-009G","INCLINATION":"53.0562","APOAPSIS":"550.477","MEAN_ELEMENT_THEORY":"SGP4","COUNTRY_CODE":"US","SEMIMAJOR_AXIS":"6925.339","BSTAR":"0.00012054000000","TLE_LINE1":"1 47554U 21009G   21282.73080975  .00001514  00000-0  12054-3 0  9997","RA_OF_ASC_NODE":"67.9720","ELEMENT_SET_NO":"999","OBJECT_TYPE":"PAYLOAD","EPHEMERIS_TYPE":"0","MEAN_MOTION":"15.06402956","PERIOD":"95.592","EPOCH":"2021-10-09T17:32:21.962400","TIME_SYSTEM":"UTC"},{"FILE":"3153808","PERIAPSIS":"546.153","REV_AT_EPOCH":"3782","OBJECT_NAME":"STARLINK-1954","ECCENTRICITY":"0.00015160","DECAY_DATE":null,"LAUNCH_DATE":"2021-02-04","ARG_OF_PERICENTER":"82.8672","CENTER_NAME":"EARTH","MEAN_ANOMALY":"277.2490","MEAN_MOTION_DDOT":"0.0000000000000","CLASSIFICATION_TYPE":"U","NORAD_CAT_ID":"47555","TLE_LINE2":"2 47555  53.0557  58.4040 0001516  82.8672 277.2490 15.06403351 37829","REF_FRAME":"TEME","MEAN_MOTION_DOT":"-0.00000051","EPOCH":"2021-10-09T15:20:59.839008","TIME_SYSTEM":"UTC","PERIOD":"95.592","MEAN_MOTION":"15.06403351","ELEMENT_SET_NO":"999","EPHEMERIS_TYPE":"0","OBJECT_TYPE":"PAYLOAD","RA_OF_ASC_NODE":"58.4040","SEMIMAJOR_AXIS":"6925.338","BSTAR":"0.00001550600000","TLE_LINE1":"1 47555U 21009H   21282.63958147 -.00000051  00000-0  15506-4 0  9994","MEAN_ELEMENT_THEORY":"SGP4","COUNTRY_CODE":"US","APOAPSIS":"548.253","GP_ID":"186728571","SITE":"AFETR","RCS_SIZE":"LARGE","INCLINATION":"53.0557","OBJECT_ID":"2021-009H"}];
